STARLINK-36909          
1 67946U 26037Q   26077.59650047  .00364370  00000+0  16611-2 0  9997
2 67946  42.9982 143.8420 0001596 289.3786  70.6913 15.82016412  4666
STARLINK-36920          
1 67947U 26037R   26077.58334491 -.01870659  00000+0 -15603-1 0  9993
2 67947  42.9996 144.0116 0001137 273.1078 337.5087 15.72512213  4625
STARLINK-36873          
1 67948U 26037S   26077.58334491 -.01904607  00000+0 -16424-1 0  9997
2 67948  42.9996 144.0276 0001222 277.4231 326.6192 15.71264504  4628
STARLINK-36863          
1 67949U 26037T   26077.58334491 -.01870689  00000+0 -13489-1 0  9998
2 67949  42.9991 143.9343 0001228 276.6420   4.8964 15.75830012  4623
STARLINK-36887          
1 67950U 26037U   26077.58334491 -.01841733  00000+0 -23354-1 0  9990
2 67950  42.9992 144.3230 0001492 289.6623 196.0595 15.61725759  4628
STARLINK-36897          
1 67951U 26037V   26077.58334491 -.01870228  00000+0 -14111-1 0  9993
2 67951  42.9992 143.9276 0001295 266.6953  17.5058 15.74806745  4626
STARLINK-36381          
1 67952U 26037W   26075.57100050 -.00027192  00000+0 -12748-3 0  9992
2 67952  42.9982 156.1801 0001021 306.5215  53.5562 15.81938385  4341
STARLINK-36824          
1 67953U 26037X   26077.58334491 -.01857956  00000+0 -21733-1 0  9996
2 67953  42.9995 144.2166 0001193 293.5121 234.8824 15.63796435  4623
STARLINK-36869          
1 67954U 26037Y   26077.58334491 -.01862131  00000+0 -21970-1 0  9991
2 67954  42.9999 144.2028 0001115 292.8380 240.7798 15.63589082  4622
STARLINK-36872          
1 67955U 26037Z   26076.89461649  .00552137  00000+0  24590-2 0  9992
2 67955  42.9984 148.0361 0002898 328.4785  31.5912 15.82034569  4555
STARLINK-36918          
1 67956U 26037AA  26077.46152236  .00327705  00000+0  14279-2 0  9990
2 67956  43.0011 144.5435 0013584 261.4552  98.4781 15.82958374  4649
STARLINK-36829          
1 67957U 26037AB  26077.58334491 -.01898073  00000+0 -17081-1 0  9996
2 67957  42.9994 143.9764 0001268 275.7379 348.4431 15.70248242  4628
STARLINK-36799          
1 67958U 26037AC  26077.58334491 -.01865495  00000+0 -11359-1 0  9991
2 67958  42.9991 143.8026 0001568 280.8313  52.9446 15.79542284  4629
STARLINK-36834          
1 67959U 26037AD  26077.58334491 -.01899430  00000+0 -17250-1 0  9994
2 67959  42.9994 143.9277 0001371 275.7119   7.6001 15.70033717  4622
STARLINK-36841          
1 67960U 26037AE  26075.50320626  .00656337  00000+0  27816-2 0  9995
2 67960  42.9981 156.5268 0001894 354.5035   5.5816 15.82830893  4335
STARLINK-36912          
1 67961U 26038A   26077.58334491 -.02385634  00000+0 -24375-1 0  9991
2 67961  97.2855  88.3187 0001900  79.0175  13.2872 15.68172558  4635
