[{"OBJECT_NAME":"STARLINK-36909","OBJECT_ID":"2026-037Q","EPOCH":"2026-03-18T14:18:57.640608","MEAN_MOTION":15.82016412,"ECCENTRICITY":0.00015961,"INCLINATION":42.9982,"RA_OF_ASC_NODE":143.842,"ARG_OF_PERICENTER":289.3786,"MEAN_ANOMALY":70.6913,"EPHEMERIS_TYPE":0,"CLASSIFICATION_TYPE":"U","NORAD_CAT_ID":67946,"ELEMENT_SET_NO":999,"REV_AT_EPOCH":466,"BSTAR":0.0016610872,"MEAN_MOTION_DOT":0.0036437,"MEAN_MOTION_DDOT":0},{"OBJECT_NAME":"STARLINK-36920","OBJECT_ID":"2026-037R","EPOCH":"2026-03-18T14:00:01.000224","MEAN_MOTION":15.72512213,"ECCENTRICITY":0.00011371,"INCLINATION":42.9996,"RA_OF_ASC_NODE":144.0116,"ARG_OF_PERICENTER":273.1078,"MEAN_ANOMALY":337.5087,"EPHEMERIS_TYPE":0,"CLASSIFICATION_TYPE":"U","NORAD_CAT_ID":67947,"ELEMENT_SET_NO":999,"REV_AT_EPOCH":462,"BSTAR":-0.015603392,"MEAN_MOTION_DOT":-0.01870659,"MEAN_MOTION_DDOT":0},{"OBJECT_NAME":"STARLINK-36873","OBJECT_ID":"2026-037S","EPOCH":"2026-03-18T14:00:01.000224","MEAN_MOTION":15.71264504,"ECCENTRICITY":0.0001222,"INCLINATION":42.9996,"RA_OF_ASC_NODE":144.0276,"ARG_OF_PERICENTER":277.4231,"MEAN_ANOMALY":326.6192,"EPHEMERIS_TYPE":0,"CLASSIFICATION_TYPE":"U","NORAD_CAT_ID":67948,"ELEMENT_SET_NO":999,"REV_AT_EPOCH":462,"BSTAR":-0.016424414,"MEAN_MOTION_DOT":-0.01904607,"MEAN_MOTION_DDOT":0},{"OBJECT_NAME":"STARLINK-36863","OBJECT_ID":"2026-037T","EPOCH":"2026-03-18T14:00:01.000224","MEAN_MOTION":15.75830012,"ECCENTRICITY":0.00012283,"INCLINATION":42.9991,"RA_OF_ASC_NODE":143.9343,"ARG_OF_PERICENTER":276.642,"MEAN_ANOMALY":4.8964,"EPHEMERIS_TYPE":0,"CLASSIFICATION_TYPE":"U","NORAD_CAT_ID":67949,"ELEMENT_SET_NO":999,"REV_AT_EPOCH":462,"BSTAR":-0.013488926,"MEAN_MOTION_DOT":-0.01870689,"MEAN_MOTION_DDOT":0},{"OBJECT_NAME":"STARLINK-36887","OBJECT_ID":"2026-037U","EPOCH":"2026-03-18T14:00:01.000224","MEAN_MOTION":15.61725759,"ECCENTRICITY":0.00014922,"INCLINATION":42.9992,"RA_OF_ASC_NODE":144.323,"ARG_OF_PERICENTER":289.6623,"MEAN_ANOMALY":196.0595,"EPHEMERIS_TYPE":0,"CLASSIFICATION_TYPE":"U","NORAD_CAT_ID":67950,"ELEMENT_SET_NO":999,"REV_AT_EPOCH":462,"BSTAR":-0.023354496,"MEAN_MOTION_DOT":-0.01841733,"MEAN_MOTION_DDOT":0},{"OBJECT_NAME":"STARLINK-36897","OBJECT_ID":"2026-037V","EPOCH":"2026-03-18T14:00:01.000224","MEAN_MOTION":15.74806745,"ECCENTRICITY":0.00012953,"INCLINATION":42.9992,"RA_OF_ASC_NODE":143.9276,"ARG_OF_PERICENTER":266.6953,"MEAN_ANOMALY":17.5058,"EPHEMERIS_TYPE":0,"CLASSIFICATION_TYPE":"U","NORAD_CAT_ID":67951,"ELEMENT_SET_NO":999,"REV_AT_EPOCH":462,"BSTAR":-0.014110733,"MEAN_MOTION_DOT":-0.01870228,"MEAN_MOTION_DDOT":0},{"OBJECT_NAME":"STARLINK-36381","OBJECT_ID":"2026-037W","EPOCH":"2026-03-16T13:42:14.443200","MEAN_MOTION":15.81938385,"ECCENTRICITY":0.00010214,"INCLINATION":42.9982,"RA_OF_ASC_NODE":156.1801,"ARG_OF_PERICENTER":306.5215,"MEAN_ANOMALY":53.5562,"EPHEMERIS_TYPE":0,"CLASSIFICATION_TYPE":"U","NORAD_CAT_ID":67952,"ELEMENT_SET_NO":999,"REV_AT_EPOCH":434,"BSTAR":-0.00012748186,"MEAN_MOTION_DOT":-0.00027192,"MEAN_MOTION_DDOT":0},{"OBJECT_NAME":"STARLINK-36824","OBJECT_ID":"2026-037X","EPOCH":"2026-03-18T14:00:01.000224","MEAN_MOTION":15.63796435,"ECCENTRICITY":0.00011938,"INCLINATION":42.9995,"RA_OF_ASC_NODE":144.2166,"ARG_OF_PERICENTER":293.5121,"MEAN_ANOMALY":234.8824,"EPHEMERIS_TYPE":0,"CLASSIFICATION_TYPE":"U","NORAD_CAT_ID":67953,"ELEMENT_SET_NO":999,"REV_AT_EPOCH":462,"BSTAR":-0.021732975,"MEAN_MOTION_DOT":-0.01857956,"MEAN_MOTION_DDOT":0},{"OBJECT_NAME":"STARLINK-36869","OBJECT_ID":"2026-037Y","EPOCH":"2026-03-18T14:00:01.000224","MEAN_MOTION":15.63589082,"ECCENTRICITY":0.00011152,"INCLINATION":42.9999,"RA_OF_ASC_NODE":144.2028,"ARG_OF_PERICENTER":292.838,"MEAN_ANOMALY":240.7798,"EPHEMERIS_TYPE":0,"CLASSIFICATION_TYPE":"U","NORAD_CAT_ID":67954,"ELEMENT_SET_NO":999,"REV_AT_EPOCH":462,"BSTAR":-0.021969647,"MEAN_MOTION_DOT":-0.01862131,"MEAN_MOTION_DDOT":0},{"OBJECT_NAME":"STARLINK-36872","OBJECT_ID":"2026-037Z","EPOCH":"2026-03-17T21:28:14.864736","MEAN_MOTION":15.82034569,"ECCENTRICITY":0.00028981,"INCLINATION":42.9984,"RA_OF_ASC_NODE":148.0361,"ARG_OF_PERICENTER":328.4785,"MEAN_ANOMALY":31.5912,"EPHEMERIS_TYPE":0,"CLASSIFICATION_TYPE":"U","NORAD_CAT_ID":67955,"ELEMENT_SET_NO":999,"REV_AT_EPOCH":455,"BSTAR":0.0024590235,"MEAN_MOTION_DOT":0.00552137,"MEAN_MOTION_DDOT":0},{"OBJECT_NAME":"STARLINK-36918","OBJECT_ID":"2026-037AA","EPOCH":"2026-03-18T11:04:35.531904","MEAN_MOTION":15.82958374,"ECCENTRICITY":0.00135845,"INCLINATION":43.0011,"RA_OF_ASC_NODE":144.5435,"ARG_OF_PERICENTER":261.4552,"MEAN_ANOMALY":98.4781,"EPHEMERIS_TYPE":0,"CLASSIFICATION_TYPE":"U","NORAD_CAT_ID":67956,"ELEMENT_SET_NO":999,"REV_AT_EPOCH":464,"BSTAR":0.00142793,"MEAN_MOTION_DOT":0.00327705,"MEAN_MOTION_DDOT":0},{"OBJECT_NAME":"STARLINK-36829","OBJECT_ID":"2026-037AB","EPOCH":"2026-03-18T14:00:01.000224","MEAN_MOTION":15.70248242,"ECCENTRICITY":0.00012687,"INCLINATION":42.9994,"RA_OF_ASC_NODE":143.9764,"ARG_OF_PERICENTER":275.7379,"MEAN_ANOMALY":348.4431,"EPHEMERIS_TYPE":0,"CLASSIFICATION_TYPE":"U","NORAD_CAT_ID":67957,"ELEMENT_SET_NO":999,"REV_AT_EPOCH":462,"BSTAR":-0.017081477,"MEAN_MOTION_DOT":-0.01898073,"MEAN_MOTION_DDOT":0},{"OBJECT_NAME":"STARLINK-36799","OBJECT_ID":"2026-037AC","EPOCH":"2026-03-18T14:00:01.000224","MEAN_MOTION":15.79542284,"ECCENTRICITY":0.00015683,"INCLINATION":42.9991,"RA_OF_ASC_NODE":143.8026,"ARG_OF_PERICENTER":280.8313,"MEAN_ANOMALY":52.9446,"EPHEMERIS_TYPE":0,"CLASSIFICATION_TYPE":"U","NORAD_CAT_ID":67958,"ELEMENT_SET_NO":999,"REV_AT_EPOCH":462,"BSTAR":-0.011359138,"MEAN_MOTION_DOT":-0.01865495,"MEAN_MOTION_DDOT":0},{"OBJECT_NAME":"STARLINK-36834","OBJECT_ID":"2026-037AD","EPOCH":"2026-03-18T14:00:01.000224","MEAN_MOTION":15.70033717,"ECCENTRICITY":0.00013719,"INCLINATION":42.9994,"RA_OF_ASC_NODE":143.9277,"ARG_OF_PERICENTER":275.7119,"MEAN_ANOMALY":7.6001,"EPHEMERIS_TYPE":0,"CLASSIFICATION_TYPE":"U","NORAD_CAT_ID":67959,"ELEMENT_SET_NO":999,"REV_AT_EPOCH":462,"BSTAR":-0.017249911,"MEAN_MOTION_DOT":-0.0189943,"MEAN_MOTION_DDOT":0},{"OBJECT_NAME":"STARLINK-36841","OBJECT_ID":"2026-037AE","EPOCH":"2026-03-16T12:04:37.020864","MEAN_MOTION":15.82830893,"ECCENTRICITY":0.00018947,"INCLINATION":42.9981,"RA_OF_ASC_NODE":156.5268,"ARG_OF_PERICENTER":354.5035,"MEAN_ANOMALY":5.5816,"EPHEMERIS_TYPE":0,"CLASSIFICATION_TYPE":"U","NORAD_CAT_ID":67960,"ELEMENT_SET_NO":999,"REV_AT_EPOCH":433,"BSTAR":0.0027816077,"MEAN_MOTION_DOT":0.00656337,"MEAN_MOTION_DDOT":0},{"OBJECT_NAME":"STARLINK-36912","OBJECT_ID":"2026-038A","EPOCH":"2026-03-18T14:00:01.000224","MEAN_MOTION":15.68172558,"ECCENTRICITY":0.00019005,"INCLINATION":97.2855,"RA_OF_ASC_NODE":88.3187,"ARG_OF_PERICENTER":79.0175,"MEAN_ANOMALY":13.2872,"EPHEMERIS_TYPE":0,"CLASSIFICATION_TYPE":"U","NORAD_CAT_ID":67961,"ELEMENT_SET_NO":999,"REV_AT_EPOCH":463,"BSTAR":-0.024375438,"MEAN_MOTION_DOT":-0.02385634,"MEAN_MOTION_DDOT":0}]
